
    {
        "ARG_OF_PERICENTER": 82.3586,
        "BSTAR": 0.00010165572,
        "CLASSIFICATION_TYPE": "U",
        "ECCENTRICITY": 0.00017774,
        "ELEMENT_SET_NO": 999,
        "EPHEMERIS_TYPE": 0,
        "EPOCH": "2026-06-19T15:19:24.844800",
        "INCLINATION": 97.9121,
        "MEAN_ANOMALY": 277.7828,
        "MEAN_MOTION": 14.80232541,
        "MEAN_MOTION_DDOT": 0,
        "MEAN_MOTION_DOT": 7.21e-06,
        "NORAD_CAT_ID": 57654,
        "OBJECT_ID": "2023-123A",
        "OBJECT_NAME": "GAOFEN-12 04",
        "RA_OF_ASC_NODE": 88.6211,
        "REV_AT_EPOCH": 15299
    },
    {
        "ARG_OF_PERICENTER": 104.3384,
        "BSTAR": 0.0002005732,
        "CLASSIFICATION_TYPE": "U",
        "ECCENTRICITY": 0.00115407,
        "ELEMENT_SET_NO": 999,
        "EPHEMERIS_TYPE": 0,
        "EPOCH": "2026-06-19T15:28:49.219104",
        "INCLINATION": 97.4827,
        "MEAN_ANOMALY": 255.9147,
        "MEAN_MOTION": 15.45767414,
        "MEAN_MOTION_DDOT": 0,
        "MEAN_MOTION_DOT": 9.637e-05,
        "NORAD_CAT_ID": 59065,
        "OBJECT_ID": "2024-039Q",
        "OBJECT_NAME": "PARS 1",
        "RA_OF_ASC_NODE": 151.6421,
        "REV_AT_EPOCH": 12902
    },
    {
        "ARG_OF_PERICENTER": 124.1796,
        "BSTAR": 8.1143431e-05,
        "CLASSIFICATION_TYPE": "U",
        "ECCENTRICITY": 0.00023522,
        "ELEMENT_SET_NO": 999,
        "EPHEMERIS_TYPE": 0,
        "EPOCH": "2026-06-19T14:44:39.409728",
        "INCLINATION": 97.2753,
        "MEAN_ANOMALY": 235.9669,
        "MEAN_MOTION": 15.32142618,
        "MEAN_MOTION_DDOT": 0,
        "MEAN_MOTION_DOT": 2.442e-05,
        "NORAD_CAT_ID": 59371,
        "OBJECT_ID": "2024-061A",
        "OBJECT_NAME": "RESURS-P 4",
        "RA_OF_ASC_NODE": 118.4708,
        "REV_AT_EPOCH": 12413
    },
    {
        "ARG_OF_PERICENTER": 9.7979,
        "BSTAR": 0.00013808668,
        "CLASSIFICATION_TYPE": "U",
        "ECCENTRICITY": 0.00092911,
        "ELEMENT_SET_NO": 999,
        "EPHEMERIS_TYPE": 0,
        "EPOCH": "2026-06-19T12:52:03.512064",
        "INCLINATION": 97.5016,
        "MEAN_ANOMALY": 350.3434,
        "MEAN_MOTION": 15.16680029,
        "MEAN_MOTION_DDOT": 0,
        "MEAN_MOTION_DOT": 2.638e-05,
        "NORAD_CAT_ID": 59625,
        "OBJECT_ID": "2024-081A",
        "OBJECT_NAME": "LEGION 1",
        "RA_OF_ASC_NODE": 248.3682,
        "REV_AT_EPOCH": 11789
    },
    {
        "ARG_OF_PERICENTER": 335.0375,
        "BSTAR": 0.000156072,
        "CLASSIFICATION_TYPE": "U",
        "ECCENTRICITY": 0.00105576,
        "ELEMENT_SET_NO": 999,
        "EPHEMERIS_TYPE": 0,
        "EPOCH": "2026-06-19T13:35:16.585152",
        "INCLINATION": 97.5016,
        "MEAN_ANOMALY": 25.0346,
        "MEAN_MOTION": 15.1665878,
        "MEAN_MOTION_DDOT": 0,
        "MEAN_MOTION_DOT": 2.99e-05,
        "NORAD_CAT_ID": 59626,
        "OBJECT_ID": "2024-081B",
        "OBJECT_NAME": "LEGION 2",
        "RA_OF_ASC_NODE": 248.4952,
        "REV_AT_EPOCH": 11790
    },
    {
        "ARG_OF_PERICENTER": 97.0889,
        "BSTAR": 0.00015006817,
        "CLASSIFICATION_TYPE": "U",
        "ECCENTRICITY": 0.00016235,
        "ELEMENT_SET_NO": 999,
        "EPHEMERIS_TYPE": 0,
        "EPOCH": "2026-06-19T14:14:21.481152",
        "INCLINATION": 97.9248,
        "MEAN_ANOMALY": 263.0507,
        "MEAN_MOTION": 14.79472225,
        "MEAN_MOTION_DDOT": 0,
        "MEAN_MOTION_DOT": 1.069e-05,
        "NORAD_CAT_ID": 60182,
        "OBJECT_ID": "2024-123A",
        "OBJECT_NAME": "ALOS-4 (DAICHI-4)",
        "RA_OF_ASC_NODE": 267.7335,
        "REV_AT_EPOCH": 10623
    },
    {
        "ARG_OF_PERICENTER": 183.9483,
        "BSTAR": 0.00018723339,
        "CLASSIFICATION_TYPE": "U",
        "ECCENTRICITY": 0.00079294,
        "ELEMENT_SET_NO": 999,
        "EPHEMERIS_TYPE": 0,
        "EPOCH": "2026-06-19T13:39:18.350496",
        "INCLINATION": 45.0027,
        "MEAN_ANOMALY": 176.1334,
        "MEAN_MOTION": 15.16052785,
        "MEAN_MOTION_DDOT": 0,
        "MEAN_MOTION_DOT": 3.401e-05,
        "NORAD_CAT_ID": 60452,
        "OBJECT_ID": "2024-146A",
        "OBJECT_NAME": "LEGION 3",
        "RA_OF_ASC_NODE": 17.7811,
        "REV_AT_EPOCH": 10238
    },
    {
        "ARG_OF_PERICENTER": 319.7035,
        "BSTAR": 0.0002040465,
        "CLASSIFICATION_TYPE": "U",
        "ECCENTRICITY": 0.00135868,
        "ELEMENT_SET_NO": 999,
        "EPHEMERIS_TYPE": 0,
        "EPOCH": "2026-06-19T07:24:14.500224",
        "INCLINATION": 45.0014,
        "MEAN_ANOMALY": 40.2836,
        "MEAN_MOTION": 15.16046207,
        "MEAN_MOTION_DDOT": 0,
        "MEAN_MOTION_DOT": 3.734e-05,
        "NORAD_CAT_ID": 60453,
        "OBJECT_ID": "2024-146B",
        "OBJECT_NAME": "LEGION 4",
        "RA_OF_ASC_NODE": 111.0883,
        "REV_AT_EPOCH": 10119
    },
    {
        "ARG_OF_PERICENTER": 82.8566,
        "BSTAR": 4.6065988e-05,
        "CLASSIFICATION_TYPE": "U",
        "ECCENTRICITY": 9.976e-05,
        "ELEMENT_SET_NO": 999,
        "EPHEMERIS_TYPE": 0,
        "EPOCH": "2026-06-19T11:31:32.494080",
        "INCLINATION": 98.5692,
        "MEAN_ANOMALY": 277.2731,
        "MEAN_MOTION": 14.30818366,
        "MEAN_MOTION_DDOT": 0,
        "MEAN_MOTION_DOT": 7.7e-07,
        "NORAD_CAT_ID": 60989,
        "OBJECT_ID": "2024-157A",
        "OBJECT_NAME": "SENTINEL-2C",
        "RA_OF_ASC_NODE": 245.2299,
        "REV_AT_EPOCH": 9331
    },
    {
        "ARG_OF_PERICENTER": 107.2173,
        "BSTAR": 3.4044551e-05,
        "CLASSIFICATION_TYPE": "U",
        "ECCENTRICITY": 0.00020122,
        "ELEMENT_SET_NO": 999,
        "EPHEMERIS_TYPE": 0,
        "EPOCH": "2026-06-19T14:02:13.037568",
        "INCLINATION": 98.717,
        "MEAN_ANOMALY": 252.9225,
        "MEAN_MOTION": 14.22754732,
        "MEAN_MOTION_DDOT": 0,
        "MEAN_MOTION_DOT": 3.2e-07,
        "NORAD_CAT_ID": 61735,
        "OBJECT_ID": "2024-199A",
        "OBJECT_NAME": "IONOSFERA-M 1",
        "RA_OF_ASC_NODE": 43.7318,
        "REV_AT_EPOCH": 12804
    },
    {
        "ARG_OF_PERICENTER": 37.8711,
        "BSTAR": 3.5436976e-05,
        "CLASSIFICATION_TYPE": "U",
        "ECCENTRICITY": 9.453e-05,
        "ELEMENT_SET_NO": 999,
        "EPHEMERIS_TYPE": 0,
        "EPOCH": "2026-06-19T14:51:35.627904",
        "INCLINATION": 98.7169,
        "MEAN_ANOMALY": 322.2533,
        "MEAN_MOTION": 14.22758029,
        "MEAN_MOTION_DDOT": 0,
        "MEAN_MOTION_DOT": 3.5e-07,
        "NORAD_CAT_ID": 61736,
        "OBJECT_ID": "2024-199B",
        "OBJECT_NAME": "IONOSFERA-M 2",
        "RA_OF_ASC_NODE": 43.6763,
        "REV_AT_EPOCH": 13117
    },
    {
        "ARG_OF_PERICENTER": 241.4639,
        "BSTAR": 0.00026535624,
        "CLASSIFICATION_TYPE": "U",
        "ECCENTRICITY": 0.00049417,
        "ELEMENT_SET_NO": 999,
        "EPHEMERIS_TYPE": 0,
        "EPOCH": "2026-06-19T15:09:00.772416",
        "INCLINATION": 97.4221,
        "MEAN_ANOMALY": 118.6097,
        "MEAN_MOTION": 15.17633604,
        "MEAN_MOTION_DDOT": 0,
        "MEAN_MOTION_DOT": 5.274e-05,
        "NORAD_CAT_ID": 62725,
        "OBJECT_ID": "2025-012A",
        "OBJECT_NAME": "PRSC-EO1",
        "RA_OF_ASC_NODE": 243.0436,
        "REV_AT_EPOCH": 7856
    },
    {
        "ARG_OF_PERICENTER": 96.2561,
        "BSTAR": 3.63e-05,
        "CLASSIFICATION_TYPE": "U",
        "ECCENTRICITY": 0.0001346,
        "ELEMENT_SET_NO": 999,
        "EPHEMERIS_TYPE": 0,
        "EPOCH": "2026-06-18T11:10:04.238112",
        "INCLINATION": 98.0739,
        "MEAN_ANOMALY": 263.8797,
        "MEAN_MOTION": 14.67536694,
        "MEAN_MOTION_DDOT": 0,
        "MEAN_MOTION_DOT": 1.58e-06,
        "NORAD_CAT_ID": 63772,
        "OBJECT_ID": "2025-090A",
        "OBJECT_NAME": "BIOMASS",
        "RA_OF_ASC_NODE": 356.7637,
        "REV_AT_EPOCH": 6087
    }